$$SOE
2459580.500000000, A.D. 2022-Jan-01 00:00:00.0000, 6.027203696978327E+09, -2.045220286538061E+08, 1.521289560989658E+08,
2459587.500000000, A.D. 2022-Jan-08 00:00:00.0000, 6.027329428282325E+09, -2.017137269594852E+08, 1.532787737930844E+08,
2459594.500000000, A.D. 2022-Jan-15 00:00:00.0000, 6.027453743481157E+09, -1.989053652923928E+08, 1.544285589305722E+08,
2459601.500000000, A.D. 2022-Jan-22 00:00:00.0000, 6.027576646501081E+09, -1.960969457697459E+08, 1.555783108806953E+08,
2459608.500000000, A.D. 2022-Jan-29 00:00:00.0000, 6.027698141847849E+09, -1.932884680323544E+08, 1.567280291198762E+08,
2459615.500000000, A.D. 2022-Feb-05 00:00:00.0000, 6.027818232399617E+09, -1.904799299162884E+08, 1.578777133794593E+08,
2459622.500000000, A.D. 2022-Feb-12 00:00:00.0000, 6.027936919373214E+09, -1.876713291927952E+08, 1.590273635084296E+08,
2459629.500000000, A.D. 2022-Feb-19 00:00:00.0000, 6.028054203138906E+09, -1.848626640074608E+08, 1.601769793660874E+08,
2459636.500000000, A.D. 2022-Feb-26 00:00:00.0000, 6.028170083572380E+09, -1.820539327416165E+08, 1.613265608056933E+08,
2459643.500000000, A.D. 2022-Mar-05 00:00:00.0000, 6.028284560103151E+09, -1.792451339128582E+08, 1.624761076838112E+08,
2459650.500000000, A.D. 2022-Mar-12 00:00:00.0000, 6.028397631681241E+09, -1.764362661803175E+08, 1.636256198693456E+08,
2459657.500000000, A.D. 2022-Mar-19 00:00:00.0000, 6.028509296733201E+09, -1.736273284264967E+08, 1.647750972477434E+08,
2459664.500000000, A.D. 2022-Mar-26 00:00:00.0000, 6.028619553129848E+09, -1.708183199214230E+08, 1.659245397175322E+08,
2459671.500000000, A.D. 2022-Apr-02 00:00:00.0000, 6.028728398233534E+09, -1.680092406247369E+08, 1.670739471681461E+08,
2459678.500000000, A.D. 2022-Apr-09 00:00:00.0000, 6.028835829297027E+09, -1.652000916206601E+08, 1.682233194142583E+08,
2459685.500000000, A.D. 2022-Apr-16 00:00:00.0000, 6.028941844571066E+09, -1.623908750315452E+08, 1.693726561071263E+08,
2459692.500000000, A.D. 2022-Apr-23 00:00:00.0000, 6.029046443851816E+09, -1.595815923255479E+08, 1.705219568278143E+08,
2459699.500000000, A.D. 2022-Apr-30 00:00:00.0000, 6.029149626597980E+09, -1.567722432635333E+08, 1.716712213502568E+08,
2459706.500000000, A.D. 2022-May-07 00:00:00.0000, 6.029251390680353E+09, -1.539628274586619E+08, 1.728204496318923E+08,
2459713.500000000, A.D. 2022-May-14 00:00:00.0000, 6.029351733153184E+09, -1.511533455103694E+08, 1.739696416526708E+08,
2459720.500000000, A.D. 2022-May-21 00:00:00.0000, 6.029450651016250E+09, -1.483437989539493E+08, 1.751187973507338E+08,
2459727.500000000, A.D. 2022-May-28 00:00:00.0000, 6.029548141488894E+09, -1.455341899844346E+08, 1.762679166203432E+08,
2459734.500000000, A.D. 2022-Jun-04 00:00:00.0000, 6.029644202073088E+09, -1.427245212675056E+08, 1.774169993211060E+08,
2459741.500000000, A.D. 2022-Jun-11 00:00:00.0000, 6.029738830550278E+09, -1.399147958350905E+08, 1.785660452854434E+08,
2459748.500000000, A.D. 2022-Jun-18 00:00:00.0000, 6.029832024950695E+09, -1.371050170521765E+08, 1.797150543219002E+08,
2459755.500000000, A.D. 2022-Jun-25 00:00:00.0000, 6.029923783524641E+09, -1.342951886877733E+08, 1.808640262089641E+08,
2459762.500000000, A.D. 2022-Jul-02 00:00:00.0000, 6.030014104849807E+09, -1.314853151555145E+08, 1.820129606618306E+08,
2459769.500000000, A.D. 2022-Jul-09 00:00:00.0000, 6.030102988464945E+09, -1.286754017467005E+08, 1.831618572509058E+08,
2459776.500000000, A.D. 2022-Jul-16 00:00:00.0000, 6.030190435974720E+09, -1.258654537728068E+08, 1.843107153657476E+08,
2459783.500000000, A.D. 2022-Jul-23 00:00:00.0000, 6.030276450427402E+09, -1.230554745396455E+08, 1.854595344326319E+08,
2459790.500000000, A.D. 2022-Jul-30 00:00:00.0000, 6.030361034049425E+09, -1.202454655070661E+08, 1.866083141041585E+08,
2459797.500000000, A.D. 2022-Aug-06 00:00:00.0000, 6.030444187935637E+09, -1.174354279860442E+08, 1.877570541439911E+08,
2459804.500000000, A.D. 2022-Aug-13 00:00:00.0000, 6.030525912872007E+09, -1.146253636187102E+08, 1.889057543075811E+08,
2459811.500000000, A.D. 2022-Aug-20 00:00:00.0000, 6.030606209721483E+09, -1.118152741447117E+08, 1.900544143219290E+08,
2459818.500000000, A.D. 2022-Aug-27 00:00:00.0000, 6.030685079441092E+09, -1.090051611804790E+08, 1.912030338989885E+08,
2459825.500000000, A.D. 2022-Sep-03 00:00:00.0000, 6.030762522978263E+09, -1.061950261219353E+08, 1.923516127511207E+08,
2459832.500000000, A.D. 2022-Sep-10 00:00:00.0000, 6.030838541136415E+09, -1.033848701467371E+08, 1.935001506024179E+08,
2459839.500000000, A.D. 2022-Sep-17 00:00:00.0000, 6.030913134439272E+09, -1.005746943177790E+08, 1.946486471931067E+08,
2459846.500000000, A.D. 2022-Sep-24 00:00:00.0000, 6.030986303054313E+09, -9.776449983884528E+07, 1.957971022673030E+08,
2459853.500000000, A.D. 2022-Oct-01 00:00:00.0000, 6.031058047015339E+09, -9.495428848470214E+07, 1.969455155201733E+08,
2459860.500000000, A.D. 2022-Oct-08 00:00:00.0000, 6.031128367151465E+09, -9.214406268355662E+07, 1.980938865096242E+08,
2459867.500000000, A.D. 2022-Oct-15 00:00:00.0000, 6.031197265790705E+09, -8.933382405269691E+07, 1.992422147157531E+08,
2459874.500000000, A.D. 2022-Oct-22 00:00:00.0000, 6.031264745056552E+09, -8.652357207120839E+07, 2.003904998102896E+08,
2459881.500000000, A.D. 2022-Oct-29 00:00:00.0000, 6.031330805255371E+09, -8.371330548324803E+07, 2.015387416946926E+08,
2459888.500000000, A.D. 2022-Nov-05 00:00:00.0000, 6.031395445453931E+09, -8.090302369073954E+07, 2.026869403380728E+08,
2459895.500000000, A.D. 2022-Nov-12 00:00:00.0000, 6.031458664282244E+09, -7.809272686825398E+07, 2.038350956984860E+08,
2459902.500000000, A.D. 2022-Nov-19 00:00:00.0000, 6.031520460242326E+09, -7.528241575419748E+07, 2.049832077154138E+08,
2459909.500000000, A.D. 2022-Nov-26 00:00:00.0000, 6.031580831785118E+09, -7.247209151563409E+07, 2.061312763167637E+08,
2459916.500000000, A.D. 2022-Dec-03 00:00:00.0000, 6.031639777321580E+09, -6.966175569827099E+07, 2.072793014241167E+08,
2459923.500000000, A.D. 2022-Dec-10 00:00:00.0000, 6.031697295213499E+09, -6.685141024291689E+07, 2.084272829535270E+08,
2459930.500000000, A.D. 2022-Dec-17 00:00:00.0000, 6.031753383768725E+09, -6.404105759340404E+07, 2.095752208075495E+08,
2459937.500000000, A.D. 2022-Dec-24 00:00:00.0000, 6.031808041350209E+09, -6.123070096181047E+07, 2.107231148431036E+08,
2459944.500000000, A.D. 2022-Dec-31 00:00:00.0000, 6.031861266956513E+09, -5.842034464346816E+07, 2.118709647911968E+08,
2459951.500000000, A.D. 2023-Jan-07 00:00:00.0000, 6.031913061396461E+09, -5.560999341936819E+07, 2.130187701959536E+08,
2459958.500000000, A.D. 2023-Jan-14 00:00:00.0000, 6.031963427090951E+09, -5.279965054915458E+07, 2.141665305940416E+08,
2459965.500000000, A.D. 2023-Jan-21 00:00:00.0000, 6.032012365857166E+09, -4.998931752733643E+07, 2.153142457344341E+08,
2459972.500000000, A.D. 2023-Jan-28 00:00:00.0000, 6.032059878343185E+09, -4.717899579821938E+07, 2.164619154861645E+08,
2459979.500000000, A.D. 2023-Feb-04 00:00:00.0000, 6.032105964904423E+09, -4.436868740180643E+07, 2.176095397007115E+08,
2459986.500000000, A.D. 2023-Feb-11 00:00:00.0000, 6.032150626126740E+09, -4.155839474420090E+07, 2.187571181779596E+08,
2459993.500000000, A.D. 2023-Feb-18 00:00:00.0000, 6.032193862932993E+09, -3.874812031555982E+07, 2.199046506743802E+08,
2460000.500000000, A.D. 2023-Feb-25 00:00:00.0000, 6.032235676535923E+09, -3.593786651720263E+07, 2.210521369162482E+08,
2460007.500000000, A.D. 2023-Mar-04 00:00:00.0000, 6.032276068339787E+09, -3.312763557884789E+07, 2.221995766102126E+08,
2460014.500000000, A.D. 2023-Mar-11 00:00:00.0000, 6.032315039819491E+09, -3.031742956523249E+07, 2.233469694488260E+08,
2460021.500000000, A.D. 2023-Mar-18 00:00:00.0000, 6.032352592424514E+09, -2.750725052134544E+07, 2.244943151028763E+08,
2460028.500000000, A.D. 2023-Mar-25 00:00:00.0000, 6.032388727711104E+09, -2.469710080323973E+07, 2.256416131782351E+08,
2460035.500000000, A.D. 2023-Apr-01 00:00:00.0000, 6.032423448127505E+09, -2.188698320079789E+07, 2.267888631306531E+08,
2460042.500000000, A.D. 2023-Apr-08 00:00:00.0000, 6.032456757836904E+09, -1.907689962727201E+07, 2.279360642952560E+08,
2460049.500000000, A.D. 2023-Apr-15 00:00:00.0000, 6.032488661241282E+09, -1.626684948159976E+07, 2.290832161548798E+08,
2460056.500000000, A.D. 2023-Apr-22 00:00:00.0000, 6.032519161015401E+09, -1.345683073533237E+07, 2.302303184320023E+08,
2460063.500000000, A.D. 2023-Apr-29 00:00:00.0000, 6.032548258386046E+09, -1.064684149121743E+07, 2.313773709375539E+08,
2460070.500000000, A.D. 2023-May-06 00:00:00.0000, 6.032575953896341E+09, -7.836880232195362E+06, 2.325243734835890E+08,
2460077.500000000, A.D. 2023-May-13 00:00:00.0000, 6.032602247678408E+09, -5.026945654249981E+06, 2.336713258762881E+08,
2460084.500000000, A.D. 2023-May-20 00:00:00.0000, 6.032627139468515E+09, -2.217036574110478E+06, 2.348182279275050E+08,
2460091.500000000, A.D. 2023-May-27 00:00:00.0000, 6.032650628558256E+09, 5.928480588426292E+05, 2.359650794644735E+08,
2460098.500000000, A.D. 2023-Jun-03 00:00:00.0000, 6.032672713739315E+09, 3.402709072524950E+06, 2.371118803342486E+08,
2460105.500000000, A.D. 2023-Jun-10 00:00:00.0000, 6.032693393265646E+09, 6.212546890248805E+06, 2.382586303992906E+08,
2460112.500000000, A.D. 2023-Jun-17 00:00:00.0000, 6.032712664922087E+09, 9.022361196934581E+06, 2.394053295108391E+08,
2460119.500000000, A.D. 2023-Jun-24 00:00:00.0000, 6.032730526519382E+09, 1.183215050910230E+07, 2.405519774350195E+08,
2460126.500000000, A.D. 2023-Jul-01 00:00:00.0000, 6.032746977068791E+09, 1.464191247679713E+07, 2.416985737759185E+08,
2460133.500000000, A.D. 2023-Jul-08 00:00:00.0000, 6.032762016962264E+09, 1.745164573956333E+07, 2.428451181161833E+08,
2460140.500000000, A.D. 2023-Jul-15 00:00:00.0000, 6.032775645881448E+09, 2.026135050672619E+07, 2.439916102608735E+08,
2460147.500000000, A.D. 2023-Jul-22 00:00:00.0000, 6.032787861956910E+09, 2.307102682761844E+07, 2.451380501769492E+08,
$$EOE